GLOBALSTAR M084         
1 38040U 11080A   26003.64911167 -.00000117  00000+0 -76102-4 0  9991
2 38040  51.9997 158.1956 0001288 102.5227 339.2659 12.62267107647985
GLOBALSTAR M080         
1 38041U 11080B   26003.87431451 -.00000114  00000+0 -59778-4 0  9997
2 38041  52.0043 159.1711 0000584 112.1514  43.3165 12.62265453648139
GLOBALSTAR M082         
1 38042U 11080C   26004.25548850 -.00000114  00000+0 -55802-4 0  9997
2 38042  52.0071 113.4940 0000530 127.4997 250.6398 12.62266393648891
GLOBALSTAR M092         
1 38043U 11080D   26004.26289524 -.00000087  00000+0  93221-4 0  9994
2 38043  52.0061 203.8607 0001040  85.2379  86.3390 12.62269198647348
GLOBALSTAR M090         
1 38044U 11080E   26004.28226704 -.00000114  00000+0 -57817-4 0  9991
2 38044  52.0122 107.3160 0000673 106.7170 271.9993 12.62265540649012
GLOBALSTAR M086         
1 38045U 11080F   26004.22613299 -.00000093  00000+0  59742-4 0  9999
2 38045  51.9896 107.6837 0001505  69.7418 304.8037 12.62281801648956
GLOBALSTAR M097         
1 39072U 13005A   26004.33049829 -.00000092  00000+0  63868-4 0  9996
2 39072  52.0070  22.1293 0000328  70.3780 289.7123 12.62267848596215
GLOBALSTAR M093         
1 39073U 13005B   26004.30435633 -.00000090  00000+0  77369-4 0  9995
2 39073  52.0134  15.4947 0000402  25.7910 334.2977 12.62271418596165
